IRIDIUM 112             
1 41925U 17003J   23358.39862929  .00000471  00000+0  16111-3 0  9995
2 41925  86.3968 106.8820 0001971 105.2833 254.8580 14.34216584363448
IRIDIUM 111             
1 41926U 17003K   23358.38594606  .00000463  00000+0  15819-3 0  9994
2 41926  86.3970 106.9384 0002414  98.5605 261.5865 14.34215979363428
IRIDIUM 113             
1 42803U 17039A   23358.50545083  .00000017  00000+0 -90396-6 0  9999
2 42803  86.3970 340.6371 0002300  98.7076 261.4380 14.34217927341370
IRIDIUM 123             
1 42804U 17039B   23358.54693236  .00000545  00000+0  18764-3 0  9999
2 42804  86.3970  12.1116 0002315  95.7771 264.3688 14.34219544340148
IRIDIUM 120             
1 42805U 17039C   23358.49910870  .00000514  00000+0  17641-3 0  9999
2 42805  86.3961 340.5395 0002272  89.7720 270.3736 14.34218066341369
IRIDIUM 115             
1 42806U 17039D   23358.58860662  .00000765  00000+0  22148-3 0  9999
2 42806  86.4499 340.5010 0002421  92.3860 267.7619 14.43269387343647
IRIDIUM 118             
1 42807U 17039E   23358.57864360  .00000480  00000+0  16439-3 0  9998
2 42807  86.3969  12.1003 0002199  93.9624 266.1823 14.34218471340140
IRIDIUM 117             
1 42808U 17039F   23358.52790105  .00000062  00000+0  14918-4 0  9996
2 42808  86.3969  12.0872 0002285  88.8135 271.3323 14.34218204340169
